[{"OBJECT_NAME":"KUIPER-00008","OBJECT_ID":"2025-088A","EPOCH":"2026-03-06T06:00:02.000160","MEAN_MOTION":14.92078783,"ECCENTRICITY":0.00099712,"INCLINATION":51.8942,"RA_OF_ASC_NODE":102.8856,"ARG_OF_PERICENTER":88.729,"MEAN_ANOMALY":203.3618,"EPHEMERIS_TYPE":0,"CLASSIFICATION_TYPE":"U","NORAD_CAT_ID":63724,"ELEMENT_SET_NO":999,"REV_AT_EPOCH":563,"BSTAR":-0.02725352,"MEAN_MOTION_DOT":-0.00269622,"MEAN_MOTION_DDOT":0},{"OBJECT_NAME":"KUIPER-00009","OBJECT_ID":"2025-088B","EPOCH":"2026-03-06T04:53:38.460768","MEAN_MOTION":14.79900037,"ECCENTRICITY":0.00077635,"INCLINATION":51.9026,"RA_OF_ASC_NODE":122.0536,"ARG_OF_PERICENTER":86.9367,"MEAN_ANOMALY":273.2483,"EPHEMERIS_TYPE":0,"CLASSIFICATION_TYPE":"U","NORAD_CAT_ID":63725,"ELEMENT_SET_NO":999,"REV_AT_EPOCH":4726,"BSTAR":0.00045030717,"MEAN_MOTION_DOT":3.21e-5,"MEAN_MOTION_DDOT":0},{"OBJECT_NAME":"KUIPER-00010","OBJECT_ID":"2025-088C","EPOCH":"2026-03-06T06:19:36.985728","MEAN_MOTION":14.79925963,"ECCENTRICITY":8.163e-5,"INCLINATION":51.9034,"RA_OF_ASC_NODE":98.2429,"ARG_OF_PERICENTER":87.2321,"MEAN_ANOMALY":272.8735,"EPHEMERIS_TYPE":0,"CLASSIFICATION_TYPE":"U","NORAD_CAT_ID":63726,"ELEMENT_SET_NO":999,"REV_AT_EPOCH":4722,"BSTAR":-5.3199572e-5,"MEAN_MOTION_DOT":-6.27e-6,"MEAN_MOTION_DDOT":0},{"OBJECT_NAME":"KUIPER-00011","OBJECT_ID":"2025-088D","EPOCH":"2026-03-05T16:20:51.070560","MEAN_MOTION":14.79868828,"ECCENTRICITY":5.258e-5,"INCLINATION":51.9,"RA_OF_ASC_NODE":108.3793,"ARG_OF_PERICENTER":89.825,"MEAN_ANOMALY":270.2773,"EPHEMERIS_TYPE":0,"CLASSIFICATION_TYPE":"U","NORAD_CAT_ID":63727,"ELEMENT_SET_NO":999,"REV_AT_EPOCH":4716,"BSTAR":-0.0049517902,"MEAN_MOTION_DOT":-0.00037702,"MEAN_MOTION_DDOT":0},{"OBJECT_NAME":"KUIPER-00012","OBJECT_ID":"2025-088E","EPOCH":"2026-03-06T06:00:02.000160","MEAN_MOTION":14.79946018,"ECCENTRICITY":4.678e-5,"INCLINATION":51.8996,"RA_OF_ASC_NODE":90.7892,"ARG_OF_PERICENTER":67.662,"MEAN_ANOMALY":177.3934,"EPHEMERIS_TYPE":0,"CLASSIFICATION_TYPE":"U","NORAD_CAT_ID":63728,"ELEMENT_SET_NO":999,"REV_AT_EPOCH":408,"BSTAR":-0.0051374983,"MEAN_MOTION_DOT":-0.0003917,"MEAN_MOTION_DDOT":0},{"OBJECT_NAME":"KUIPER-00013","OBJECT_ID":"2025-088F","EPOCH":"2026-03-05T11:02:27.574368","MEAN_MOTION":14.80007865,"ECCENTRICITY":0.0002595,"INCLINATION":51.9005,"RA_OF_ASC_NODE":126.8001,"ARG_OF_PERICENTER":43.6142,"MEAN_ANOMALY":316.5025,"EPHEMERIS_TYPE":0,"CLASSIFICATION_TYPE":"U","NORAD_CAT_ID":63729,"ELEMENT_SET_NO":999,"REV_AT_EPOCH":4694,"BSTAR":0.0022583,"MEAN_MOTION_DOT":0.00017069,"MEAN_MOTION_DDOT":0},{"OBJECT_NAME":"KUIPER-00014","OBJECT_ID":"2025-088G","EPOCH":"2026-03-05T15:51:35.158176","MEAN_MOTION":14.79924535,"ECCENTRICITY":4.04e-5,"INCLINATION":51.9017,"RA_OF_ASC_NODE":126.8827,"ARG_OF_PERICENTER":7.8272,"MEAN_ANOMALY":352.2697,"EPHEMERIS_TYPE":0,"CLASSIFICATION_TYPE":"U","NORAD_CAT_ID":63730,"ELEMENT_SET_NO":999,"REV_AT_EPOCH":4677,"BSTAR":-0.0012961,"MEAN_MOTION_DOT":-0.00010085,"MEAN_MOTION_DDOT":0},{"OBJECT_NAME":"KUIPER-00015","OBJECT_ID":"2025-088H","EPOCH":"2026-03-06T05:17:02.527296","MEAN_MOTION":14.83616171,"ECCENTRICITY":0.00097324,"INCLINATION":51.8983,"RA_OF_ASC_NODE":133.7662,"ARG_OF_PERICENTER":63.2273,"MEAN_ANOMALY":296.9686,"EPHEMERIS_TYPE":0,"CLASSIFICATION_TYPE":"U","NORAD_CAT_ID":63731,"ELEMENT_SET_NO":999,"REV_AT_EPOCH":4718,"BSTAR":0.00077650622,"MEAN_MOTION_DOT":6.247e-5,"MEAN_MOTION_DDOT":0},{"OBJECT_NAME":"KUIPER-00016","OBJECT_ID":"2025-088J","EPOCH":"2026-03-04T13:52:07.747680","MEAN_MOTION":14.79852213,"ECCENTRICITY":0.0006561,"INCLINATION":51.9003,"RA_OF_ASC_NODE":134.2029,"ARG_OF_PERICENTER":62.017,"MEAN_ANOMALY":298.1456,"EPHEMERIS_TYPE":0,"CLASSIFICATION_TYPE":"U","NORAD_CAT_ID":63732,"ELEMENT_SET_NO":999,"REV_AT_EPOCH":4657,"BSTAR":0.00086949,"MEAN_MOTION_DOT":6.402e-5,"MEAN_MOTION_DDOT":0},{"OBJECT_NAME":"KUIPER-00018","OBJECT_ID":"2025-088K","EPOCH":"2026-03-06T00:00:02.000160","MEAN_MOTION":14.79776197,"ECCENTRICITY":0.00015181,"INCLINATION":51.9009,"RA_OF_ASC_NODE":116.8817,"ARG_OF_PERICENTER":123.161,"MEAN_ANOMALY":192.7236,"EPHEMERIS_TYPE":0,"CLASSIFICATION_TYPE":"U","NORAD_CAT_ID":63733,"ELEMENT_SET_NO":999,"REV_AT_EPOCH":318,"BSTAR":0.0052790767,"MEAN_MOTION_DOT":0.00040113,"MEAN_MOTION_DDOT":0},{"OBJECT_NAME":"KUIPER-00019","OBJECT_ID":"2025-088L","EPOCH":"2026-03-06T06:42:33.004224","MEAN_MOTION":14.79940524,"ECCENTRICITY":5.736e-5,"INCLINATION":51.9004,"RA_OF_ASC_NODE":114.1747,"ARG_OF_PERICENTER":108.3756,"MEAN_ANOMALY":251.7269,"EPHEMERIS_TYPE":0,"CLASSIFICATION_TYPE":"U","NORAD_CAT_ID":63734,"ELEMENT_SET_NO":999,"REV_AT_EPOCH":4700,"BSTAR":2.2811783e-5,"MEAN_MOTION_DOT":-4.7e-7,"MEAN_MOTION_DDOT":0},{"OBJECT_NAME":"KUIPER-00020","OBJECT_ID":"2025-088M","EPOCH":"2026-03-05T11:10:23.573568","MEAN_MOTION":14.79864574,"ECCENTRICITY":0.0006725,"INCLINATION":51.901,"RA_OF_ASC_NODE":121.7693,"ARG_OF_PERICENTER":69.7848,"MEAN_ANOMALY":290.3837,"EPHEMERIS_TYPE":0,"CLASSIFICATION_TYPE":"U","NORAD_CAT_ID":63735,"ELEMENT_SET_NO":999,"REV_AT_EPOCH":4703,"BSTAR":-0.00050225,"MEAN_MOTION_DOT":-4.045e-5,"MEAN_MOTION_DDOT":0},{"OBJECT_NAME":"KUIPER-00021","OBJECT_ID":"2025-088N","EPOCH":"2026-03-05T12:45:10.901088","MEAN_MOTION":14.79929364,"ECCENTRICITY":0.0003548,"INCLINATION":51.9013,"RA_OF_ASC_NODE":122.4734,"ARG_OF_PERICENTER":72.89,"MEAN_ANOMALY":287.2451,"EPHEMERIS_TYPE":0,"CLASSIFICATION_TYPE":"U","NORAD_CAT_ID":63736,"ELEMENT_SET_NO":999,"REV_AT_EPOCH":4686,"BSTAR":0.00016272,"MEAN_MOTION_DOT":1.019e-5,"MEAN_MOTION_DDOT":0},{"OBJECT_NAME":"KUIPER-00023","OBJECT_ID":"2025-088P","EPOCH":"2026-03-05T14:20:52.837728","MEAN_MOTION":14.79894637,"ECCENTRICITY":0.0008345,"INCLINATION":51.9006,"RA_OF_ASC_NODE":123.6386,"ARG_OF_PERICENTER":87.7648,"MEAN_ANOMALY":272.4269,"EPHEMERIS_TYPE":0,"CLASSIFICATION_TYPE":"U","NORAD_CAT_ID":63737,"ELEMENT_SET_NO":999,"REV_AT_EPOCH":4715,"BSTAR":-6.4948e-5,"MEAN_MOTION_DOT":-7.18e-6,"MEAN_MOTION_DDOT":0},{"OBJECT_NAME":"KUIPER-00024","OBJECT_ID":"2025-088Q","EPOCH":"2026-03-06T06:52:41.212704","MEAN_MOTION":14.79937404,"ECCENTRICITY":8.577e-5,"INCLINATION":51.9024,"RA_OF_ASC_NODE":108.1586,"ARG_OF_PERICENTER":103.2467,"MEAN_ANOMALY":256.8591,"EPHEMERIS_TYPE":0,"CLASSIFICATION_TYPE":"U","NORAD_CAT_ID":63738,"ELEMENT_SET_NO":999,"REV_AT_EPOCH":4755,"BSTAR":-0.00010619389,"MEAN_MOTION_DOT":-1.031e-5,"MEAN_MOTION_DDOT":0},{"OBJECT_NAME":"KUIPER-00025","OBJECT_ID":"2025-088R","EPOCH":"2026-03-05T10:49:04.345536","MEAN_MOTION":14.83478668,"ECCENTRICITY":3.77e-5,"INCLINATION":51.9016,"RA_OF_ASC_NODE":120.2029,"ARG_OF_PERICENTER":33.3475,"MEAN_ANOMALY":326.7512,"EPHEMERIS_TYPE":0,"CLASSIFICATION_TYPE":"U","NORAD_CAT_ID":63739,"ELEMENT_SET_NO":999,"REV_AT_EPOCH":4717,"BSTAR":0.00084301,"MEAN_MOTION_DOT":6.776e-5,"MEAN_MOTION_DDOT":0},{"OBJECT_NAME":"KUIPER-00027","OBJECT_ID":"2025-088S","EPOCH":"2026-03-06T06:48:46.320480","MEAN_MOTION":14.79948097,"ECCENTRICITY":7.735e-5,"INCLINATION":51.8999,"RA_OF_ASC_NODE":110.6444,"ARG_OF_PERICENTER":86.3063,"MEAN_ANOMALY":273.7988,"EPHEMERIS_TYPE":0,"CLASSIFICATION_TYPE":"U","NORAD_CAT_ID":63740,"ELEMENT_SET_NO":999,"REV_AT_EPOCH":4711,"BSTAR":0.00077324378,"MEAN_MOTION_DOT":5.681e-5,"MEAN_MOTION_DDOT":0}]
