KUIPER-00008            
1 63724U 25088A   26065.25002315 -.00269622  00000+0 -27254-1 0  9991
2 63724  51.8942 102.8856 0009971  88.7290 203.3618 14.92078783  5639
KUIPER-00009            
1 63725U 25088B   26065.20391737  .00003210  00000+0  45031-3 0  9998
2 63725  51.9026 122.0536 0007763  86.9367 273.2483 14.79900037 47267
KUIPER-00010            
1 63726U 25088C   26065.26362252 -.00000627  00000+0 -53200-4 0  9994
2 63726  51.9034  98.2429 0000816  87.2321 272.8735 14.79925963 47224
KUIPER-00011            
1 63727U 25088D   26064.68114665 -.00037702  00000+0 -49518-2 0  9992
2 63727  51.9000 108.3793 0000525  89.8250 270.2773 14.79868828 47164
KUIPER-00012            
1 63728U 25088E   26065.25002315 -.00039170  00000+0 -51375-2 0  9990
2 63728  51.8996  90.7892 0000467  67.6620 177.3934 14.79946018  4080
KUIPER-00013            
1 63729U 25088F   26064.46004137  .00017069  00000+0  22583-2 0  9997
2 63729  51.9005 126.8001 0002595  43.6142 316.5025 14.80007865 46942
KUIPER-00014            
1 63730U 25088G   26064.66082359 -.00010085  00000+0 -12961-2 0  9995
2 63730  51.9017 126.8827 0000404   7.8272 352.2697 14.79924535 46779
KUIPER-00015            
1 63731U 25088H   26065.22016814  .00006247  00000+0  77651-3 0  9993
2 63731  51.8983 133.7662 0009732  63.2273 296.9686 14.83616171 47182
KUIPER-00016            
1 63732U 25088J   26063.57786745  .00006402  00000+0  86949-3 0  9990
2 63732  51.9003 134.2029 0006561  62.0170 298.1456 14.79852213 46575
KUIPER-00018            
1 63733U 25088K   26065.00002315  .00040113  00000+0  52791-2 0  9999
2 63733  51.9009 116.8817 0001518 123.1610 192.7236 14.79776197  3189
KUIPER-00019            
1 63734U 25088L   26065.27954866 -.00000047  00000+0  22812-4 0  9992
2 63734  51.9004 114.1747 0000573 108.3756 251.7269 14.79940524 47002
KUIPER-00020            
1 63735U 25088M   26064.46555062 -.00004045  00000+0 -50225-3 0  9999
2 63735  51.9010 121.7693 0006725  69.7848 290.3837 14.79864574 47034
KUIPER-00021            
1 63736U 25088N   26064.53137617  .00001019  00000+0  16272-3 0  9990
2 63736  51.9013 122.4734 0003548  72.8900 287.2451 14.79929364 46862
KUIPER-00023            
1 63737U 25088P   26064.59783377 -.00000718  00000+0 -64948-4 0  9998
2 63737  51.9006 123.6386 0008345  87.7648 272.4269 14.79894637 47155
KUIPER-00024            
1 63738U 25088Q   26065.28658811 -.00001031  00000+0 -10619-3 0  9994
2 63738  51.9024 108.1586 0000857 103.2467 256.8591 14.79937404 47557
KUIPER-00025            
1 63739U 25088R   26064.45074474  .00006776  00000+0  84301-3 0  9998
2 63739  51.9016 120.2029 0000377  33.3475 326.7512 14.83478668 47170
KUIPER-00027            
1 63740U 25088S   26065.28386945  .00005681  00000+0  77324-3 0  9992
2 63740  51.8999 110.6444 0000773  86.3063 273.7988 14.79948097 47111
